{"type": "FeatureCollection", "features": [ {"type": "Feature", "properties": {"norad_id": 37278, "name": "COSMOS 2251 DEB", "group": "cosmos-2251-debris", "lat": 7.456422330779807, "lon": 176.910359447624, "alt_km": 630.4033036134615, "timestamp": "2025-12-07T07:31:36.695550+00:00", "meta": {"OBJECT_NAME": "COSMOS 2251 DEB", "OBJECT_ID": "1993-036BHS", "EPOCH": "2025-12-04T09:26:36.152736", "MEAN_MOTION": 14.15029915, "ECCENTRICITY": 0.029998, "INCLINATION": 73.7864, "RA_OF_ASC_NODE": 4.3592, "ARG_OF_PERICENTER": 188.2556, "MEAN_ANOMALY": 234.4903, "EPHEMERIS_TYPE": 0, "CLASSIFICATION_TYPE": "U", "NORAD_CAT_ID": 37278, "ELEMENT_SET_NO": 999, "REV_AT_EPOCH": 63711, "BSTAR": 0.0023061, "MEAN_MOTION_DOT": 6.884e-05, "MEAN_MOTION_DDOT": 0}, "tle": {"line1": "1 37278U 93036BHS 25338.39347399  .00006884  00000+0  23061-2 0  9995", "line2": "2 37278  73.7864   4.3592 0299980 188.2556 234.4903 14.15029915637119"}}, "geometry": {"type": "Point", "coordinates": [176.910359447624, 7.456422330779807]}}, {"type": "Feature", "properties": {"norad_id": 37280, "name": "COSMOS 2251 DEB", "group": "cosmos-2251-debris", "lat": 36.80452468577855, "lon": 79.14052621868082, "alt_km": 912.522182030214, "timestamp": "2025-12-07T07:31:36.695561+00:00", "meta": {"OBJECT_NAME": "COSMOS 2251 DEB", "OBJECT_ID": "1993-036BHU", "EPOCH": "2025-12-05T23:11:54.105216", "MEAN_MOTION": 14.19236446, "ECCENTRICITY": 0.01316124, "INCLINATION": 74.0322, "RA_OF_ASC_NODE": 69.1767, "ARG_OF_PERICENTER": 199.164, "MEAN_ANOMALY": 160.4529, "EPHEMERIS_TYPE": 0, "CLASSIFICATION_TYPE": "U", "NORAD_CAT_ID": 37280, "ELEMENT_SET_NO": 999, "REV_AT_EPOCH": 57227, "BSTAR": 0.0030955091, "MEAN_MOTION_DOT": 7.056e-05, "MEAN_MOTION_DDOT": 0}, "tle": {"line1": "1 37280U 93036BHU 25339.96659844  .00007056  00000+0  30955-2 0  9995", "line2": "2 37280  74.0322  69.1767 0131612 199.1640 160.4529 14.19236446572270"}}, "geometry": {"type": "Point", "coordinates": [79.14052621868082, 36.80452468577855]}}, {"type": "Feature", "properties": {"norad_id": 37284, "name": "COSMOS 2251 DEB", "group": "cosmos-2251-debris", "lat": 12.486830853648174, "lon": -17.30680263185815, "alt_km": 953.460760582595, "timestamp": "2025-12-07T07:31:36.695571+00:00", "meta": {"OBJECT_NAME": "COSMOS 2251 DEB", "OBJECT_ID": "1993-036BHY", "EPOCH": "2025-12-05T19:06:47.225088", "MEAN_MOTION": 14.12657303, "ECCENTRICITY": 0.01604408, "INCLINATION": 74.0121, "RA_OF_ASC_NODE": 169.0185, "ARG_OF_PERICENTER": 322.3384, "MEAN_ANOMALY": 52.3924, "EPHEMERIS_TYPE": 0, "CLASSIFICATION_TYPE": "U", "NORAD_CAT_ID": 37284, "ELEMENT_SET_NO": 999, "REV_AT_EPOCH": 59077, "BSTAR": 0.001984473, "MEAN_MOTION_DOT": 4.13e-05, "MEAN_MOTION_DDOT": 0}, "tle": {"line1": "1 37284U 93036BHY 25339.79637992  .00004130  00000+0  19845-2 0  9995", "line2": "2 37284  74.0121 169.0185 0160440 322.3384  52.3924 14.12657303590776"}}, "geometry": {"type": "Point", "coordinates": [-17.30680263185815, 12.486830853648174]}}, {"type": "Feature", "properties": {"norad_id": 37292, "name": "COSMOS 2251 DEB", "group": "cosmos-2251-debris", "lat": 60.62024770917181, "lon": -151.18692767047506, "alt_km": 778.8446981719635, "timestamp": "2025-12-07T07:31:36.695581+00:00", "meta": {"OBJECT_NAME": "COSMOS 2251 DEB", "OBJECT_ID": "1993-036BJG", "EPOCH": "2025-12-02T14:04:30.366912", "MEAN_MOTION": 14.03226454, "ECCENTRICITY": 0.02102512, "INCLINATION": 74.129, "RA_OF_ASC_NODE": 67.3453, "ARG_OF_PERICENTER": 73.1105, "MEAN_ANOMALY": 289.2966, "EPHEMERIS_TYPE": 0, "CLASSIFICATION_TYPE": "U", "NORAD_CAT_ID": 37292, "ELEMENT_SET_NO": 999, "REV_AT_EPOCH": 59706, "BSTAR": 0.0022453288, "MEAN_MOTION_DOT": 4.236e-05, "MEAN_MOTION_DDOT": 0}, "tle": {"line1": "1 37292U 93036BJG 25336.58646258  .00004236  00000+0  22453-2 0  9999", "line2": "2 37292  74.1290  67.3453 0210251  73.1105 289.2966 14.03226454597064"}}, "geometry": {"type": "Point", "coordinates": [-151.18692767047506, 60.62024770917181]}}, {"type": "Feature", "properties": {"norad_id": 37295, "name": "COSMOS 2251 DEB", "group": "cosmos-2251-debris", "lat": -70.94661394052478, "lon": 168.22440995045565, "alt_km": 709.0441468752588, "timestamp": "2025-12-07T07:31:36.695591+00:00", "meta": {"OBJECT_NAME": "COSMOS 2251 DEB", "OBJECT_ID": "1993-036BJK", "EPOCH": "2025-12-06T07:24:27.976032", "MEAN_MOTION": 14.65177663, "ECCENTRICITY": 0.00436801, "INCLINATION": 74.0075, "RA_OF_ASC_NODE": 294.0211, "ARG_OF_PERICENTER": 115.2247, "MEAN_ANOMALY": 245.346, "EPHEMERIS_TYPE": 0, "CLASSIFICATION_TYPE": "U", "NORAD_CAT_ID": 37295, "ELEMENT_SET_NO": 999, "REV_AT_EPOCH": 82210, "BSTAR": 0.0010871987, "MEAN_MOTION_DOT": 5.905e-05, "MEAN_MOTION_DDOT": 0}, "tle": {"line1": "1 37295U 93036BJK 25340.30865713  .00005905  00000+0  10872-2 0  9992", "line2": "2 37295  74.0075 294.0211 0043680 115.2247 245.3460 14.65177663822106"}}, "geometry": {"type": "Point", "coordinates": [168.22440995045565, -70.94661394052478]}}, {"type": "Feature", "properties": {"norad_id": 37305, "name": "COSMOS 2251 DEB", "group": "cosmos-2251-debris", "lat": -63.36603636279122, "lon": 155.83120681370198, "alt_km": 743.0639197416049, "timestamp": "2025-12-07T07:31:36.695601+00:00", "meta": {"OBJECT_NAME": "COSMOS 2251 DEB", "OBJECT_ID": "1993-036BJV", "EPOCH": "2025-12-01T04:54:57.845088", "MEAN_MOTION": 14.36058989, "ECCENTRICITY": 0.0050534, "INCLINATION": 73.8694, "RA_OF_ASC_NODE": 311.9126, "ARG_OF_PERICENTER": 273.9871, "MEAN_ANOMALY": 85.5504, "EPHEMERIS_TYPE": 0, "CLASSIFICATION_TYPE": "U", "NORAD_CAT_ID": 37305, "ELEMENT_SET_NO": 999, "REV_AT_EPOCH": 66701, "BSTAR": 0.00088749, "MEAN_MOTION_DOT": 2.593e-05, "MEAN_MOTION_DDOT": 0}, "tle": {"line1": "1 37305U 93036BJV 25335.20483617  .00002593  00000+0  88749-3 0  9995", "line2": "2 37305  73.8694 311.9126 0050534 273.9871  85.5504 14.36058989667014"}}, "geometry": {"type": "Point", "coordinates": [155.83120681370198, -63.36603636279122]}}, {"type": "Feature", "properties": {"norad_id": 37312, "name": "COSMOS 2251 DEB", "group": "cosmos-2251-debris", "lat": 72.81230914358525, "lon": -33.45893728510424, "alt_km": 740.8341984681547, "timestamp": "2025-12-07T07:31:36.695611+00:00", "meta": {"OBJECT_NAME": "COSMOS 2251 DEB", "OBJECT_ID": "1993-036BKC", "EPOCH": "2025-12-03T01:48:10.090656", "MEAN_MOTION": 14.46074055, "ECCENTRICITY": 0.00181668, "INCLINATION": 74.0321, "RA_OF_ASC_NODE": 222.2189, "ARG_OF_PERICENTER": 326.4091, "MEAN_ANOMALY": 33.5914, "EPHEMERIS_TYPE": 0, "CLASSIFICATION_TYPE": "U", "NORAD_CAT_ID": 37312, "ELEMENT_SET_NO": 999, "REV_AT_EPOCH": 86024, "BSTAR": 0.00063141036, "MEAN_MOTION_DOT": 2.231e-05, "MEAN_MOTION_DDOT": 0}, "tle": {"line1": "1 37312U 93036BKC 25337.07511679  .00002231  00000+0  63141-3 0  9998", "line2": "2 37312  74.0321 222.2189 0018166 326.4091  33.5914 14.46074055860249"}}, "geometry": {"type": "Point", "coordinates": [-33.45893728510424, 72.81230914358525]}}, {"type": "Feature", "properties": {"norad_id": 37316, "name": "COSMOS 2251 DEB", "group": "cosmos-2251-debris", "lat": 67.56807168660552, "lon": 75.97455734107169, "alt_km": 560.0898944410264, "timestamp": "2025-12-07T07:31:36.695621+00:00", "meta": {"OBJECT_NAME": "COSMOS 2251 DEB", "OBJECT_ID": "1993-036BKG", "EPOCH": "2025-12-05T10:12:05.972832", "MEAN_MOTION": 14.94025894, "ECCENTRICITY": 0.00294181, "INCLINATION": 74.0201, "RA_OF_ASC_NODE": 35.8201, "ARG_OF_PERICENTER": 107.6096, "MEAN_ANOMALY": 252.8305, "EPHEMERIS_TYPE": 0, "CLASSIFICATION_TYPE": "U", "NORAD_CAT_ID": 37316, "ELEMENT_SET_NO": 999, "REV_AT_EPOCH": 86034, "BSTAR": 0.0040342984, "MEAN_MOTION_DOT": 0.00043645, "MEAN_MOTION_DDOT": 0}, "tle": {"line1": "1 37316U 93036BKG 25339.42506913  .00043645  00000+0  40343-2 0  9990", "line2": "2 37316  74.0201  35.8201 0029418 107.6096 252.8305 14.94025894860340"}}, "geometry": {"type": "Point", "coordinates": [75.97455734107169, 67.56807168660552]}}, {"type": "Feature", "properties": {"norad_id": 37320, "name": "COSMOS 2251 DEB", "group": "cosmos-2251-debris", "lat": 25.84467102849023, "lon": 40.859408285748295, "alt_km": 663.8665670205319, "timestamp": "2025-12-07T07:31:36.695631+00:00", "meta": {"OBJECT_NAME": "COSMOS 2251 DEB", "OBJECT_ID": "1993-036BKL", "EPOCH": "2025-12-05T01:15:03.541248", "MEAN_MOTION": 14.78626026, "ECCENTRICITY": 0.00469911, "INCLINATION": 74.0466, "RA_OF_ASC_NODE": 233.2644, "ARG_OF_PERICENTER": 321.7897, "MEAN_ANOMALY": 37.995, "EPHEMERIS_TYPE": 0, "CLASSIFICATION_TYPE": "U", "NORAD_CAT_ID": 37320, "ELEMENT_SET_NO": 999, "REV_AT_EPOCH": 66033, "BSTAR": 0.0020531789, "MEAN_MOTION_DOT": 0.00015318, "MEAN_MOTION_DDOT": 0}, "tle": {"line1": "1 37320U 93036BKL 25339.05212432  .00015318  00000+0  20532-2 0  9998", "line2": "2 37320  74.0466 233.2644 0046991 321.7897  37.9950 14.78626026660337"}}, "geometry": {"type": "Point", "coordinates": [40.859408285748295, 25.84467102849023]}}, {"type": "Feature", "properties": {"norad_id": 37326, "name": "COSMOS 2251 DEB", "group": "cosmos-2251-debris", "lat": -25.12816113441814, "lon": -22.640600923426053, "alt_km": 723.8941996608237, "timestamp": "2025-12-07T07:31:36.695641+00:00", "meta": {"OBJECT_NAME": "COSMOS 2251 DEB", "OBJECT_ID": "1993-036BKS", "EPOCH": "2025-12-06T18:30:18.083232", "MEAN_MOTION": 14.61532521, "ECCENTRICITY": 0.00548849, "INCLINATION": 74.0254, "RA_OF_ASC_NODE": 346.119, "ARG_OF_PERICENTER": 116.9212, "MEAN_ANOMALY": 243.7578, "EPHEMERIS_TYPE": 0, "CLASSIFICATION_TYPE": "U", "NORAD_CAT_ID": 37326, "ELEMENT_SET_NO": 999, "REV_AT_EPOCH": 85396, "BSTAR": 0.00089010562, "MEAN_MOTION_DOT": 4.485e-05, "MEAN_MOTION_DDOT": 0}, "tle": {"line1": "1 37326U 93036BKS 25340.77104263  .00004485  00000+0  89011-3 0  9998", "line2": "2 37326  74.0254 346.1190 0054884 116.9212 243.7578 14.61532521853967"}}, "geometry": {"type": "Point", "coordinates": [-22.640600923426053, -25.12816113441814]}}]}